GLOBALSTAR M068 [-]     
1 32266U 07048D   24106.34838816 -.00000060  00000+0  24316-3 0  9997
2 32266  51.9868 166.4108 0000644 256.4242 182.9138 12.62784623763507
GLOBALSTAR M079 [+]     
1 37188U 10054A   24106.21207351 -.00000073  00000+0  17093-3 0  9994
2 37188  52.0068   2.6108 0000938  79.2634  94.1488 12.62268311622408
GLOBALSTAR M074 [+]     
1 37189U 10054B   24106.67960476 -.00000072  00000+0  17702-3 0  9995
2 37189  52.0042   0.5774 0000652  79.5306 298.8295 12.62266943623149
GLOBALSTAR M076 [+]     
1 37190U 10054C   24106.87751071 -.00000076  00000+0  15396-3 0  9999
2 37190  52.0056   0.1060 0000985 108.9891 329.8621 12.62276585623179
GLOBALSTAR M077 [+]     
1 37191U 10054D   24106.84993752 -.00000075  00000+0  15859-3 0  9994
2 37191  52.0078 316.9257 0000740  98.1509 274.4072 12.62271565623915
GLOBALSTAR M075 [+]     
1 37192U 10054E   24106.27609602 -.00000082  00000+0  12244-3 0  9993
2 37192  51.9968  44.4300 0000639  65.7010  98.3349 12.62272312622334
GLOBALSTAR M073 [+]     
1 37193U 10054F   24106.03865105 -.00000071  00000+0  18019-3 0  9994
2 37193  52.0066 318.6489 0000870  95.9941  68.7116 12.62263732623762
GLOBALSTAR M083 [+]     
1 37739U 11033A   24106.58593203 -.00000052  00000+0  28892-3 0  9994
2 37739  51.9850 266.2966 0000711  87.5734 345.8142 12.62268650592853
GLOBALSTAR M088 [+]     
1 37740U 11033B   24106.48659116 -.00000089  00000+0  82120-4 0  9996
2 37740  51.9721 172.4508 0000415  89.5201  12.7853 12.62267036588383
GLOBALSTAR M091 [+]     
1 37741U 11033C   24106.83182678 -.00000101  00000+0  14957-4 0  9998
2 37741  51.9975 134.1887 0000434  53.3639 118.4501 12.62261572589479
GLOBALSTAR M085 [+]     
1 37742U 11033D   24106.33819427 -.00000099  00000+0  25143-4 0  9998
2 37742  51.9859  87.1070 0000565  48.1348  99.1128 12.62269526589664
GLOBALSTAR M081 [+]     
1 37743U 11033E   24106.44933330 -.00000099  00000+0  28088-4 0  9992
2 37743  51.9949  89.2914 0000663  61.5267 111.0252 12.62264148589828
GLOBALSTAR M089 [+]     
1 37744U 11033F   24106.24998809 -.00000087  00000+0  92684-4 0  9993
2 37744  51.9952  44.2080 0000642 103.9632  61.4093 12.62261850590642
GLOBALSTAR M084 [+]     
1 38040U 11080A   24106.89609457 -.00000077  00000+0  14884-3 0  9998
2 38040  52.0000 269.3021 0000851 126.1181  37.9492 12.62273318568986
GLOBALSTAR M080 [+]     
1 38041U 11080B   24106.61313878 -.00000076  00000+0  15353-3 0  9999
2 38041  52.0052 271.6220 0001073 125.7293 310.7684 12.62271275568791
GLOBALSTAR M082 [+]     
1 38042U 11080C   24106.80499484 -.00000083  00000+0  11567-3 0  9990
2 38042  52.0068 226.4387 0000374  48.5269 120.0564 12.62268051569696
GLOBALSTAR M092 [+]     
1 38043U 11080D   24106.06509025 -.00000072  00000+0  17655-3 0  9994
2 38043  52.0090 319.0455 0000592 103.6174  61.8018 12.62278023567882
GLOBALSTAR M090 [+]     
1 38044U 11080E   24106.49457573 -.00000088  00000+0  87666-4 0  9999
2 38044  51.9877 221.7413 0000466  92.6392 345.8714 12.62268077569604
GLOBALSTAR M086 [+]     
1 38045U 11080F   24106.52157969 -.00000085  00000+0  10460-3 0  9994
2 38045  51.9889 222.1777 0001511 102.0657 338.7430 12.62269488569555
GLOBALSTAR M097 [+]     
1 39072U 13005A   24106.37207719 -.00000104  00000+0 -37840-5 0  9992
2 39072  52.0025 136.7470 0000493  72.6042 287.4879 12.62262390516787
GLOBALSTAR M093 [+]     
1 39073U 13005B   24106.42464851 -.00000103  00000+0  29953-5 0  9995
2 39073  51.9788 130.5733 0000538  59.8185 300.2734 12.62263112516744
GLOBALSTAR M094 [+]     
1 39074U 13005C   24106.26632195 -.00000095  00000+0  50114-4 0  9998
2 39074  51.9979  45.0069 0000762  61.9549 298.1395 12.62264222518334
GLOBALSTAR M096 [+]     
1 39075U 13005D   24106.35860392 -.00000104  00000+0 -38719-5 0  9991
2 39075  52.0064  92.9063 0000653  49.7143 310.3780 12.62264279517268
GLOBALSTAR M078 [+]     
1 39076U 13005E   24106.49116563  .00000003  00000+0  59842-3 0  9995
2 39076  51.9859 177.6013 0000646 324.6801  35.4023 12.62262002515909
GLOBALSTAR M095 [+]     
1 39077U 13005F   24106.35839017 -.00000070  00000+0  18753-3 0  9998
2 39077  51.9789 175.4097 0000527  27.8751 332.2143 12.62265246515740
GLOBALSTAR M087 [+]     
1 52888U 22064A   24106.26683008 -.00000103  00000+0  48059-4 0  9995
2 52888  51.9762  67.7784 0009077 202.5885 157.4617 13.37569666 89106
